LEDSAT                  
1 49069U 21073D   24183.16191512  .00019477  00000+0  77129-3 0  9991
2 49069  97.4374 254.2027 0018366 230.3437 129.6181 15.25309890158589
XW-3 (CAS-9)            
1 50466U 21131B   24183.58184480  .00001007  00000+0  33594-3 0  9999
2 50466  98.5286 268.5841 0005399  87.5352 272.6454 14.39691977132070
TEVEL-3                 
1 50988U 22002E   24183.45697637  .00273870  00000+0  18185-2 0  9992
2 50988  97.3736 260.1331 0005762 238.8531 121.2169 15.74662555137293
TEVEL-8                 
1 50989U 22002F   24183.43775723  .00268462  00000+0  18076-2 0  9994
2 50989  97.3752 260.2040 0005602 238.7482 121.3234 15.74353800137280
TEVEL-5                 
1 50998U 22002Q   24183.47628698  .00526949  00000+0  19410-2 0  9996
2 50998  97.3694 261.8621 0009024 243.6143 116.4203 15.86924180137412
TEVEL-6                 
1 50999U 22002R   24183.55536043  .00522433  00000+0  19856-2 0  9996
2 50999  97.3679 261.8847 0008683 243.1191 116.9193 15.86289390137425
TEVEL-1                 
1 51013U 22002AF  24183.55560001  .00272170  00000+0  18348-2 0  9990
2 51013  97.3723 260.0780 0005942 236.9837 123.0857 15.74312964137306
TEVEL-7                 
1 51062U 22002CG  24183.54737920  .00275639  00000+0  18220-2 0  9991
2 51062  97.3738 260.3023 0006069 236.9455 123.1228 15.74760728137304
TEVEL-4                 
1 51063U 22002CH  24183.47495293  .00256999  00000+0  17792-2 0  9999
2 51063  97.3748 260.0871 0005926 237.2837 122.7856 15.73732935137280
TEVEL-2                 
1 51069U 22002CP  24183.45376214  .00271886  00000+0  18028-2 0  9999
2 51069  97.3730 260.0981 0005842 237.7171 122.3528 15.74700121137298
GREENCUBE               
1 53106U 22080B   24179.39627855 -.00000003  00000+0  00000+0 0  9997
2 53106  70.1314 188.9743 0007566 105.0209 255.1288  6.42557731 45925
KAI-1 (RS26S)           
1 53378U 22096J   24183.50919151  .00186691  00000+0  12103-2 0  9993
2 53378  97.3933 103.3228 0005705 124.8899 235.2903 15.75458978106481
SIREN (RS30S)           
1 53384U 22096Q   24183.55495332  .01564458  19094-2  14469-2 0  9990
2 53384  97.3711 106.4944 0009391 159.3367 200.8300 16.12717354106701
CAS-5A (FO-118)         
1 54684U 22167C   24183.58302846  .00032244  00000+0  10724-2 0  9999
2 54684  97.6058 328.7606 0010480  99.0879 261.1548 15.31051796 86505
STRATOSAT-TK 1 (RS52S)  
1 57167U 23091B   24183.57524458  .00018027  00000+0  10235-2 0  9999
2 57167  97.6108 236.6091 0016160  74.5428 285.7586 15.12876279 55739
UMKA 1 (RS40S)          
1 57172U 23091G   24183.60134992  .00007006  00000+0  46051-3 0  9990
2 57172  97.6117 235.5019 0018375  75.5937 284.7329 15.07770733 55667
CUBESX-HSE 3 (RS42S)    
1 57178U 23091N   24183.61008126  .00009945  00000+0  62655-3 0  9998
2 57178  97.6153 235.9729 0018560  70.1929 290.1298 15.09212405 55680
MONITOR-4 (RS57S)       
1 57182U 23091S   24183.53589793  .00009257  00000+0  59134-3 0  9992
2 57182  97.6140 235.7079 0019021  71.5248 288.8045 15.08719571 55666
MONITOR-2 (RS39S)       
1 57184U 23091U   24183.56425828  .00007040  00000+0  46229-3 0  9994
2 57184  97.6141 235.8486 0015271  65.6047 294.6773 15.07845668 55676
SVYATOBOR 1 (RS60S)     
1 57187U 23091X   24183.57193874  .00008990  00000+0  56421-3 0  9991
2 57187  97.6142 236.3055 0014603  63.3603 296.9119 15.09441086 55700
VIZARD-METEO (RS38S)    
1 57189U 23091Z   24183.38168429  .00010466  00000+0  63094-3 0  9995
2 57189  97.6134 236.5215 0013448  62.4380 297.8214 15.10878060 55705
NANOZOND 1 (RS49S)      
1 57190U 23091AA  24183.55767498  .00015789  00000+0  88218-3 0  9995
2 57190  97.6114 237.2396 0011779  67.2725 292.9749 15.13534034 55773
POLYTECH-UNIVERSE 3 (R*)
1 57191U 23091AB  24183.56941550  .00007251  00000+0  47569-3 0  9999
2 57191  97.6105 235.5312 0020827  80.6490 279.7092 15.07788048 55666
UTMN 2 (RS27S)          
1 57203U 23091AP  24183.57598372  .00010441  00000+0  63814-3 0  9990
2 57203  97.6133 236.5687 0013782  61.8741 298.3879 15.10374816 55724
ARCCUBE 1 (RS25S)       
1 57205U 23091AR  24183.59066009  .00018173  00000+0  98170-3 0  9994
2 57205  97.6081 237.3992 0011861  68.6003 291.6493 15.14705184 55793
KUZGTU 1 (RS47S)        
1 57217U 23091AV  24183.55376013  .00009905  00000+0  62669-3 0  9999
2 57217  97.6126 235.7750 0018352  71.3791 288.9428 15.09061949 55679
HADES-D (SO-121)        
1 58567U 23174CY  24183.17961421  .00058899  00000+0  19343-2 0  9997
2 58567  97.4543 258.9627 0013472 177.0274 183.1050 15.31276393 35926
